[{"OBJECT_NAME":"OBJECT AL","OBJECT_ID":"2023-085AL","EPOCH":"2026-03-09T22:26:04.970400","MEAN_MOTION":15.31857284,"ECCENTRICITY":0.000802,"INCLINATION":97.4839,"RA_OF_ASC_NODE":180.0127,"ARG_OF_PERICENTER":78.7242,"MEAN_ANOMALY":281.49,"EPHEMERIS_TYPE":0,"CLASSIFICATION_TYPE":"U","NORAD_CAT_ID":57038,"ELEMENT_SET_NO":999,"REV_AT_EPOCH":15154,"BSTAR":0.0006591637,"MEAN_MOTION_DOT":0.00020246,"MEAN_MOTION_DDOT":0},{"OBJECT_NAME":"STARLINK-34000","OBJECT_ID":"2025-113L","EPOCH":"2026-03-09T11:14:40.975584","MEAN_MOTION":15.30193172,"ECCENTRICITY":0.0001096,"INCLINATION":53.1589,"RA_OF_ASC_NODE":91.987,"ARG_OF_PERICENTER":94.4203,"MEAN_ANOMALY":265.6923,"EPHEMERIS_TYPE":0,"CLASSIFICATION_TYPE":"U","NORAD_CAT_ID":64180,"ELEMENT_SET_NO":999,"REV_AT_EPOCH":4499,"BSTAR":0.0008051478,"MEAN_MOTION_DOT":0.00023558,"MEAN_MOTION_DDOT":0}]
